P/2016 G1 (PANSTARRS),e,10.9711,204.0204,111.1310,2.582482,0.2374915,0.21086412,121.6340,08/16.0/2022,2000,g 14.0,4.0
# From MPEC 2017-D91
P/2016 J1-A (PANSTARRS),e,14.3288,199.8119,47.0107,3.171920,0.1744700,0.22766760,30.7450,08/16.0/2022,2000,g 16.5,4.0
# From MPEC 2017-A77
P/2016 J1-B (PANSTARRS),e,14.3316,199.8167,46.9018,3.171553,0.1745003,0.22751856,30.8883,08/16.0/2022,2000,g 17.0,4.0
# From MPEC 2022-ED3
C/2016 M1 (PANSTARRS),e,90.9036,92.2497,209.9374,459191,0.0000000,0.99999518,0.0000,08/10.5613/2018,2000,g  5.0,4.0
# From MPEC 2022-OB6
C/2016 N4 (MASTER),e,72.6535,353.9901,55.9593,6908,0.0000017,0.99953728,0.0000,09/17.6490/2017,2000,g  8.5,4.0
# From MPEC 2021-P47
C/2016 N6 (PANSTARRS),e,105.8520,298.9409,162.6071,1028,0.0000299,0.99741111,0.0000,07/17.6204/2018,2000,g  7.0,4.0
# From MPC102099
P/2016 P1 (PANSTARRS),e,24.4418,319.5628,270.3185,3.197235,0.1724020,0.28938337,74.3172,08/16.0/2022,2000,g 15.0,4.0
# From MPEC 2022-M21
C/2016 Q2 (PANSTARRS),h,05/12.2739/2021,109.3859,322.3032,84.5521,1.002478,7.081985,2000,6.0,4.0
# From MPC102955
C/2016 Q4 (Kowalski),e,7.2487,271.2967,99.6182,17.00618,0.0140538,0.58287751,23.3036,08/16.0/2022,2000,g  7.0,4.0
# From MPEC 2021-N06
C/2016 R2 (PANSTARRS),e,58.3035,80.5243,33.1012,475.8053,0.0000950,0.99454042,0.0000,05/09.0675/2018,2000,g  7.0,4.0
# From MPEC 2022-K19
P/2016 R4 (Gibbs),e,10.8780,168.2613,174.1119,5.332218,0.0800465,0.47634054,177.2295,08/16.0/2022,2000,g 12.5,4.0
# From MPC105543
P/2016 S1 (PANSTARRS),e,94.7217,227.6321,273.2667,8.276852,0.0413910,0.71017748,81.8990,08/16.0/2022,2000,g 12.0,4.0
# From MPC110082
C/2016 T3 (PANSTARRS),e,22.7126,271.6643,194.5750,129.0540,0.0006723,0.97955457,0.0000,09/06.8538/2017,2000,g 10.5,4.0
# From MPC106345
P/2016 WM48 (Lemmon),e,117.5562,59.9260,36.1271,8.167792,0.0422228,0.78350420,84.4356,08/16.0/2022,2000,g 15.0,4.0
# From MPEC 2021-P47
C/2016 X1 (Lemmon),e,26.4563,256.3568,224.4735,1296,0.0000211,0.99416937,0.0000,04/27.7944/2019,2000,g  6.0,4.0
# From MPC114598
C/2017 AB5 (PANSTARRS),e,32.4615,42.6016,78.2844,2446,0.0000081,0.99623668,0.0000,02/14.4215/2018,2000,g  5.5,4.0
# From MPEC 2022-OB6
C/2017 B3 (LINEAR),h,02/01.8035/2019,54.1584,2.1747,284.8265,1.000580,3.927915,2000,6.0,4.0
# From MPC103847
P/2017 B4 (PANSTARRS),e,20.0584,121.4578,11.0197,4.410520,0.1064068,0.36495152,359.9130,01/05.0/2017,2000,g 14.5,4.0
# From MPEC 2022-OB6
P/2017 D1 (Fuls),e,20.7640,82.1856,7.9575,4.828410,0.0928962,0.43673061,208.5696,08/16.0/2022,2000,g 14.0,4.0
# From MPEC 2022-OB6
P/2017 D4 (PANSTARRS),e,10.5443,264.9405,212.1597,7.550776,0.0475025,0.62870921,103.1353,08/16.0/2022,2000,g 13.0,4.0
# From MPC111769
C/2017 F1 (Lemmon),h,11/28.2744/2017,146.4641,158.7875,64.7193,1.001607,4.499013,2000,10.5,4.0
# From MPC114598
C/2017 F2 (PANSTARRS),h,11/25.7385/2017,42.5552,38.7040,134.9064,1.001912,6.925165,2000,7.5,4.0
# From MPC104794
P/2017 G1 (PANSTARRS),e,4.7817,249.6624,224.3876,7.277355,0.0502046,0.65344712,115.5720,08/16.0/2022,2000,g 13.5,4.0
# From MPC108595
P/2017 G2 (PANSTARRS),e,47.9570,79.8248,105.4465,8.053949,0.0431212,0.64753866,81.6505,08/16.0/2022,2000,g 13.0,4.0
# From MPC115882
C/2017 K1 (PANSTARRS),h,03/17.9393/2018,154.0215,225.7245,4.4280,1.003447,7.284872,2000,7.0,4.0
# From MPEC 2022-PB4
C/2017 K2 (PANSTARRS),h,12/19.6830/2022,87.5621,88.2351,236.1979,1.000796,1.796904,2000,1.5,4.0
# From MPEC 2021-N06
P/2017 K3 (Gasparovic),e,4.2731,354.2903,253.4381,5.584612,0.0746818,0.57933031,142.2775,08/16.0/2022,2000,g 14.5,4.0
# From MPC114598
C/2017 K4 (ATLAS),e,16.6657,298.9081,15.3404,28.69103,0.0064133,0.90728133,10.7790,08/16.0/2022,2000,g 10.0,4.0
# From MPEC 2021-P47
C/2017 K5 (PANSTARRS),h,03/27.3816/2020,82.2460,102.3808,172.0661,1.005342,7.683749,2000,5.0,4.0
# From MPC114599
C/2017 K6 (Jacques),e,57.2228,84.9133,303.8000,1215,0.0000233,0.99835723,0.0000,01/03.9999/2018,2000,g 11.0,4.0
# From MPEC 2022-OB6
C/2017 M4 (ATLAS),h,01/17.9773/2019,105.6430,65.9495,167.6165,1.001317,3.252810,2000,6.0,4.0
# From MPC118841
C/2017 M5 (TOTAS),h,06/04.3728/2018,15.8639,216.2891,92.8555,1.005260,6.003341,2000,6.5,4.0
# From MPEC 2022-OB6
C/2017 O1 (ASASSN),e,39.9853,25.7160,20.8417,377.3104,0.0001345,0.99604889,0.0000,10/15.8730/2017,2000,g 11.0,4.0
# From MPC114599
P/2017 P1 (PANSTARRS),e,7.6902,221.3709,122.6497,7.910635,0.0442983,0.31097251,67.1391,08/16.0/2022,2000,g 10.0,4.0
# From MPC114599
C/2017 P2 (PANSTARRS),e,50.0483,165.4573,132.5084,2563,0.0000076,0.99903424,0.0000,12/05.9811/2017,2000,g 10.0,4.0
# From MPC108595
C/2017 S2 (PANSTARRS),e,12.6689,62.3212,306.1321,20.65214,0.0105016,0.82495881,19.0207,08/16.0/2022,2000,g 13.0,4.0
# From MPC114599
C/2017 S3 (PANSTARRS),h,08/16.5560/2018,99.2099,171.3163,255.8328,1.000089,0.205667,2000,12.9,4.0
# From MPC109591
C/2017 S6 (Catalina),h,02/26.1460/2018,152.8654,131.1014,134.9907,1.000906,1.551009,2000,12.5,4.0
# From MPEC 2022-OB6
P/2017 S8 (PANSTARRS),e,29.8486,191.5191,254.8467,2.777754,0.2128940,0.39074433,353.5738,08/16.0/2022,2000,g 16.0,4.0
# From MPC107050
P/2017 S9 (PANSTARRS),e,14.1428,146.2247,237.6078,3.155632,0.1758225,0.30562892,325.6567,08/16.0/2022,2000,g 17.0,4.0
# From MPC114600
C/2017 T1 (Heinze),e,96.9014,102.5215,97.0257,10799,0.0000009,0.99994575,0.0000,02/20.6535/2018,2000,g 14.5,4.0
# From MPEC 2021-Y10
C/2017 T2 (PANSTARRS),e,57.2505,64.3981,92.9525,1701,0.0000140,0.99905080,0.0000,05/04.7943/2020,2000,g  5.0,4.0
# From MPC114600
C/2017 T3 (ATLAS),e,88.2192,230.1995,246.8112,1204,0.0000236,0.99931555,0.0000,07/19.0224/2018,2000,g 10.0,4.0
# From MPC115882
P/2017 TW13 (Lemmon),e,44.8495,322.2766,119.9140,7.136508,0.0516982,0.71006206,78.4003,08/16.0/2022,2000,g 15.0,2.0
# From MPC114600
C/2017 U2 (Fuls),e,95.3922,149.7141,147.8936,2718,0.0000070,0.99752839,0.0000,08/28.1993/2017,2000,g  9.0,4.0
# From MPEC 2022-K19
P/2017 U3 (PANSTARRS),e,15.9187,165.1105,296.3628,4.925960,0.0901504,0.09940697,110.1229,08/16.0/2022,2000,g 11.0,4.0
# From MPEC 2021-P47
C/2017 U4 (PANSTARRS),h,09/21.9782/2018,158.2044,245.9175,158.9750,1.000042,7.721985,2000,7.0,4.0
# From MPC114600
C/2017 U5 (PANSTARRS),e,18.9786,163.0863,261.9943,16.90161,0.0141844,0.74466862,24.1224,08/16.0/2022,2000,g 12.0,4.0
# From MPEC 2022-PB4
C/2017 U7 (PANSTARRS),h,09/14.9426/2019,142.6057,276.2574,326.3974,1.001207,6.427183,2000,8.3,2.0
# From MPC114600
C/2017 W2 (Leonard),e,98.2062,312.8183,168.8888,13.61453,0.0196200,0.71021055,34.3280,08/16.0/2022,2000,g 11.0,4.0
# From MPC114601
P/2017 W3 (Gibbs),e,18.1671,210.2276,327.8328,7.834353,0.0449469,0.50642967,73.3006,08/16.0/2022,2000,g 10.5,4.0
# From MPEC 2021-R75
C/2017 X1 (PANSTARRS),e,31.3280,251.1471,283.1815,31.06650,0.0056920,0.84979510,8.6738,08/16.0/2022,2000,g 10.0,4.0
# From MPEC 2022-N37
C/2017 Y1 (PANSTARRS),e,55.2534,307.4915,134.2414,1813,0.0000128,0.99795736,0.0000,08/31.7110/2017,2000,g 11.5,4.0
# From MPEC 2022-O08
C/2017 Y2 (PANSTARRS),h,11/05.0332/2020,128.4291,66.0034,147.9315,1.001235,4.632989,2000,15.0,4.0
# From MPC111770
P/2017 Y3 (Leonard),e,27.5595,153.8468,67.5989,9.827705,0.0319909,0.86957142,52.7492,08/16.0/2022,2000,g 16.5,4.0
# From MPC114601
C/2018 A1 (PANSTARRS),e,53.6100,336.6534,96.1834,25.11142,0.0078324,0.90414774,13.7814,08/16.0/2022,2000,g 12.5,4.0
# From MPEC 2021-P47
C/2018 A3 (ATLAS),e,139.5363,194.2925,86.3530,383.0608,0.0001315,0.99144445,0.0000,01/11.3930/2019,2000,g  8.5,4.0
# From MPC114601
C/2018 A4 (PANSTARRS),e,3.1498,97.5946,355.9624,12.18408,0.0231747,0.80367052,35.9194,08/16.0/2022,2000,g 14.0,4.0
# From MPC109147
P/2018 A5 (PANSTARRS),e,23.6013,87.7979,359.4919,5.629632,0.0737877,0.52308924,131.8836,08/16.0/2022,2000,g 15.0,4.0
# From MPEC 2022-C56
C/2018 A6 (Gibbs),e,77.0557,340.3808,264.3720,15.07672,0.0168362,0.79985347,19.0410,08/16.0/2022,2000,g  9.0,4.0
# From MPEC 2022-O08
C/2018 B1 (Lemmon),e,162.4190,133.1914,68.3818,5673,0.0000023,0.99909601,0.0000,03/27.9128/2018,2000,g  9.0,4.0
# From MPC114601
P/2018 C1 (Lemmon-Read),e,5.1132,270.3460,235.6995,5.653055,0.0733296,0.53206430,119.8411,08/16.0/2022,2000,g 13.5,4.0
# From MPC114601
C/2018 C2 (Lemmon),h,05/31.6004/2018,34.4630,91.2222,134.0495,1.000141,1.960827,2000,13.0,4.0
# From MPEC 2022-M88
C/2018 DO4 (Lemmon),e,160.4450,251.4241,176.2858,25.37848,0.0077091,0.90495261,8.4401,08/16.0/2022,2000,g 11.0,4.0
# From MPC114602
C/2018 E1 (ATLAS),e,72.5099,146.8528,299.3011,53.85583,0.0024938,0.94997482,3.9428,08/16.0/2022,2000,g 10.5,4.0
# From MPEC 2022-N37
C/2018 E2 (Barros),e,97.6354,67.1606,277.4452,2965,0.0000061,0.99867799,0.0000,12/23.7980/2017,2000,g 10.5,4.0
# From MPC114602
C/2018 EN4 (NEOWISE),e,81.9245,136.1281,35.0405,17.94894,0.0129612,0.91859158,19.9001,08/16.0/2022,2000,g 15.0,4.0
# From MPC114602
C/2018 EF9 (Lemmon),e,84.6157,172.5529,72.6284,468.7580,0.0000971,0.99667059,0.0000,05/21.6142/2018,2000,g 18.0,2.0
# From MPEC 2021-R75
C/2018 F1 (Grauer),e,46.0770,177.2755,71.6003,248.2300,0.0002520,0.98792836,0.0000,12/12.4594/2018,2000,g 11.5,4.0
# From MPC110084
C/2018 F3 (Johnson),p,08/15.2314/2017,105.5348,293.0113,2.483172,173.0311,2000,13.0,4.0
# From MPEC 2021-W31
C/2018 F4 (PANSTARRS),h,12/03.5717/2019,78.0845,26.5156,263.2270,1.000171,3.442644,2000,11.0,6.0
# From MPEC 2021-Y10
C/2018 F4-A,h,12/03.5599/2019,78.0847,26.5158,263.2238,1.000119,3.442512,2000,11.0,6.0
# From MPEC 2021-W31
C/2018 F4-B,h,12/03.4961/2019,78.0855,26.5154,263.2088,1.000216,3.442295,2000,11.0,6.0
# From MPC114602
P/2018 H2 (PANSTARRS),e,7.4057,68.0667,120.0062,4.384206,0.1073662,0.54181249,179.1833,08/16.0/2022,2000,g 16.6,2.0
# From MPC114602
C/2018 K1 (Weiland),e,164.1903,260.1487,325.2227,30.18477,0.0059432,0.93764015,9.4584,08/16.0/2022,2000,g 14.9,4.0
# From MPEC 2021-R75
C/2018 KJ3 (Lemmon),e,136.6853,91.6397,217.6765,962.4331,0.0000330,0.99622985,0.0000,09/09.9660/2019,2000,g 12.2,2.0
# From MPC114602
P/2018 L1 (PANSTARRS),e,10.5824,268.6223,18.0364,3.653134,0.1411580,0.48207346,193.8020,08/16.0/2022,2000,g 15.0,4.0
# From MPEC 2021-P47
